[{"OBJECT_NAME":"ICEYE-X31","OBJECT_ID":"2023-174AJ","EPOCH":"2026-03-09T23:06:20.433600","MEAN_MOTION":15.30950809,"ECCENTRICITY":0.00015021,"INCLINATION":97.3851,"RA_OF_ASC_NODE":144.9524,"ARG_OF_PERICENTER":332.6589,"MEAN_ANOMALY":27.4572,"EPHEMERIS_TYPE":0,"CLASSIFICATION_TYPE":"U","NORAD_CAT_ID":58288,"ELEMENT_SET_NO":999,"REV_AT_EPOCH":12955,"BSTAR":0.00066288467,"MEAN_MOTION_DOT":0.00019777,"MEAN_MOTION_DDOT":0},{"OBJECT_NAME":"STARLINK-34853","OBJECT_ID":"2025-224L","EPOCH":"2026-03-09T05:21:34.009920","MEAN_MOTION":15.30190301,"ECCENTRICITY":0.00010648,"INCLINATION":53.161,"RA_OF_ASC_NODE":13.4669,"ARG_OF_PERICENTER":90.7597,"MEAN_ANOMALY":269.3526,"EPHEMERIS_TYPE":0,"CLASSIFICATION_TYPE":"U","NORAD_CAT_ID":65892,"ELEMENT_SET_NO":999,"REV_AT_EPOCH":2473,"BSTAR":0.00084273139,"MEAN_MOTION_DOT":0.00024675,"MEAN_MOTION_DDOT":0}]
